OBJECT_NAME,OBJECT_ID,EPOCH,MEAN_MOTION,ECCENTRICITY,INCLINATION,RA_OF_ASC_NODE,ARG_OF_PERICENTER,MEAN_ANOMALY,EPHEMERIS_TYPE,CLASSIFICATION_TYPE,NORAD_CAT_ID,ELEMENT_SET_NO,REV_AT_EPOCH,BSTAR,MEAN_MOTION_DOT,MEAN_MOTION_DDOT
INMARSAT GX5,2019-080B,2026-06-14T04:36:17.854848,1.00271822,.00021635,0.0459,28.9301,51.9124,261.7605,0,U,44801,999,675,0,.83E-6,0
JCSAT-18 (KACIFIC 1),2019-091A,2026-06-13T17:17:16.378944,1.00268168,.0000454,0.0164,285.1413,329.8795,56.3280,0,U,44868,999,2397,0,-.191E-5,0
ELEKTRO-L 3,2019-095A,2026-06-14T01:29:28.426848,1.00271553,.00010002,0.2477,81.5537,355.0058,284.1320,0,U,44903,999,2367,0,-.87E-6,0
SHIJIAN-20 (SJ-20),2019-097A,2026-06-13T22:17:11.604192,1.00276968,.0013864,4.9104,75.1016,54.8913,151.4095,0,U,44910,999,2366,0,.141E-5,0
TJS-5,2020-002A,2026-06-13T23:55:50.623680,1.00270349,.0007371,0.0199,295.8328,110.9893,321.9546,0,U,44978,999,2367,0,-.332E-5,0
GSAT-30,2020-005A,2026-06-14T01:31:28.235136,1.00271417,.00033377,0.0658,98.8159,345.5939,283.8147,0,U,45026,999,2347,0,-.155E-5,0
EUTELSAT KONNECT,2020-005B,2026-06-12T16:39:17.457984,1.00275963,.00016489,0.0723,99.8531,128.9449,289.2912,0,U,45027,999,2429,0,.65E-6,0
JCSAT-17,2020-013A,2026-06-13T22:21:15.755040,1.00271388,.0002346,5.3925,356.8380,84.0311,292.7088,0,U,45245,999,2320,0,-.309E-5,0
GEO-KOMPSAT-2B,2020-013B,2026-06-14T05:09:44.647776,1.00272128,.00007699,0.0130,267.6792,3.7944,196.7475,0,U,45246,999,2325,0,-.335E-5,0
BEIDOU-3 G2,2020-017A,2026-06-14T01:30:35.818848,1.00272388,.00021063,2.8566,47.2893,32.6583,285.1446,0,U,45344,999,2322,0,-.134E-5,0
AEHF-6 (USA 298),2020-022B,2026-06-14T05:12:29.384928,1.00272407,.00431995,2.5552,301.1105,17.0200,160.2852,0,U,45465,999,2298,0,-.287E-5,0
BEIDOU-3 G3,2020-040A,2026-06-14T01:39:19.980864,1.00268206,.00024454,2.4382,67.4396,336.1912,354.1235,0,U,45807,999,2203,0,-.346E-5,0
APSTAR-6D,2020-045A,2026-06-14T05:11:21.992928,1.00270452,.00021161,0.0513,105.3917,342.0945,26.9093,0,U,45863,999,2183,0,-.309E-5,0
KOREASAT 116,2020-048A,2026-06-14T02:13:38.686368,1.00269470,.00006981,0.0155,358.5324,87.4720,326.0199,0,U,45920,999,2160,0,-.353E-5,0
EXPRESS 103,2020-053A,2026-06-14T02:37:38.601120,1.00269715,.00003037,0.0156,279.1094,72.3928,46.8258,0,U,45985,999,2161,0,-.271E-5,0
EXPRESS 80,2020-053B,2026-06-13T01:14:35.686752,1.00275227,.0001896,0.0184,309.1153,206.3533,204.5485,0,U,45986,999,2159,0,-.123E-5,0
BSAT-4B,2020-056A,2026-06-13T11:57:51.918912,1.00268721,.00037461,0.0192,98.5475,17.2668,75.2961,0,U,46112,999,2135,0,0,0
MEV-2,2020-056B,2026-06-14T04:32:48.189696,1.00267355,.00002644,0.0133,328.7641,276.6580,84.2589,0,U,46113,999,8044,0,-.3E-7,0
GALAXY 30 (G-30),2020-056C,2026-06-14T03:36:38.532672,1.00270364,.0002064,0.0179,5.4372,83.1864,102.9907,0,U,46114,999,2126,0,.46E-6,0
GAOFEN-13 01,2020-071A,2026-06-14T05:06:44.935776,1.00272040,.00413925,0.5136,84.8830,123.6786,248.8596,0,U,46610,999,2089,0,-.354E-5,0
TIANTONG-1 2,2020-082A,2026-06-14T05:08:44.744064,1.00270790,.00009477,0.7944,327.0606,99.1829,38.4047,0,U,46916,999,2062,0,-.347E-5,0
LUCAS (JDRS-1),2020-089A,2026-06-14T01:33:43.020000,1.00271122,.00020484,0.0160,317.0822,115.5270,303.9965,0,U,47202,999,2038,0,-.226E-5,0
SXM-7,2020-096A,2026-06-13T21:18:09.395136,1.00269777,.0003723,0.0364,109.9140,14.9102,11.7589,0,U,47240,999,741,0,-.195E-5,0
CMS-01,2020-099A,2026-06-14T01:31:28.235136,1.00271044,.00037846,0.0904,96.0656,180.3903,91.7752,0,U,47256,999,2016,0,-.155E-5,0
TURKSAT 5A,2021-001A,2026-06-13T22:01:29.341344,1.00271149,.0000158,0.0148,47.1681,239.4684,336.9003,0,U,47306,999,1993,0,.164E-5,0
TIANTONG-1 3,2021-003A,2026-06-14T01:31:05.771136,1.00270987,.00031016,1.7590,339.0851,110.8802,276.7249,0,U,47321,999,1993,0,-.145E-5,0
TJS-6,2021-010A,2026-06-14T06:34:50.780640,1.00268636,.00029746,0.2592,264.3504,223.8690,51.5797,0,U,47613,999,1977,0,.51E-6,0
SBIRS GEO-5 (USA 315),2021-042A,2026-06-14T02:54:21.657600,1.00270469,.00012922,5.1077,329.1033,124.2459,306.4785,0,U,48618,999,1874,0,-.259E-5,0
FENGYUN 4B,2021-047A,2026-06-14T02:37:38.601120,1.00278014,.00058898,0.1453,77.1433,275.3382,53.9044,0,U,48808,999,1853,0,-.321E-5,0
SXM-8,2021-049A,2026-06-13T21:18:09.395136,1.00269823,.0004965,0.0191,15.2574,15.6764,105.6543,0,U,48838,999,1855,0,-.195E-5,0
TIANLIAN 1-05,2021-063A,2026-06-14T04:37:55.200000,1.00270933,.00005768,1.5860,80.7279,314.3294,313.7248,0,U,49011,999,1804,0,.115E-5,0
STAR ONE D2,2021-069A,2026-06-14T04:41:38.580288,1.00269750,.00020483,0.0148,342.3099,128.6930,151.8001,0,U,49055,999,1791,0,0,0
